CTC1_L_00634007-03
1 10062U 26404NV  26075.70039352  .00000000  00000+0  00000-0 0  9993
2 10062  55.0000 180.0000 0000000   0.0000 144.0000  3.95927803    16
CTC1_L_00634007-04
1 10063U 26406ML  26075.70039352  .00000000  00000+0  00000-0 0  9996
2 10063  55.0000 180.0000 0000000   0.0000 180.0000  3.95927803    17
CTC1_L_00634007-05
1 10064U 22701UW  26075.70039352  .00000000  00000+0  00000-0 0  9991
2 10064  55.0000 180.0000 0000000   0.0000 216.0000  3.95927803    18
CTC1_L_00634007-06
1 10065U 25370NC  26075.70039352  .00000000  00000+0  00000-0 0  9997
2 10065  55.0000 180.0000 0000000   0.0000 252.0000  3.95927803    19
CTC1_L_00634007-07
1 10066U 23330CD  26075.70039352  .00000000  00000+0  00000-0 0  9992
2 10066  55.0000 180.0000 0000000   0.0000 288.0000  3.95927803    19
CTC1_L_00634007-08
1 10067U 22499JO  26075.70039352  .00000000  00000+0  00000-0 0  9998
2 10067  55.0000 180.0000 0000000   0.0000 324.0000  3.95927803    11
CTC1_L_00634007-09
1 10068U 22874HG  26075.70039352  .00000000  00000+0  00000-0 0  9996
2 10068  55.0000 180.0000 0000000   0.0000   0.0000  3.95927803    13
CTC1_L_00634007-10
1 10069U 24125AB  26075.70039352  .00000000  00000+0  00000-0 0  9998
2 10069  55.0000 180.0000 0000000   0.0000  36.0000  3.95927803    13
CTC1_L_00634008-01
1 10070U 22277VY  26075.70039352  .00000000  00000+0  00000-0 0  9996
2 10070  55.0000 210.0000 0000000   0.0000  84.0000  3.95927803    12
CTC1_L_00634008-02
1 10071U 24220WG  26075.70039352  .00000000  00000+0  00000-0 0  9997
2 10071  55.0000 210.0000 0000000   0.0000 120.0000  3.95927803    14
CTC1_L_00634008-03
1 10072U 26816NP  26075.70039352  .00000000  00000+0  00000-0 0  9991
2 10072  55.0000 210.0000 0000000   0.0000 156.0000  3.95927803    14
CTC1_L_00634008-04
1 10073U 22153RZ  26075.70039352  .00000000  00000+0  00000-0 0  9992
2 10073  55.0000 210.0000 0000000   0.0000 192.0000  3.95927803    15
CTC1_L_00634008-05
1 10074U 23116SR  26075.70039352  .00000000  00000+0  00000-0 0  9993
2 10074  55.0000 210.0000 0000000   0.0000 228.0000  3.95927803    16
CTC1_L_00634008-06
1 10075U 24416QV  26075.70039352  .00000000  00000+0  00000-0 0  9998
2 10075  55.0000 210.0000 0000000   0.0000 264.0000  3.95927803    17
CTC1_L_00634008-07
1 10076U 26222UA  26075.70039352  .00000000  00000+0  00000-0 0  9996
2 10076  55.0000 210.0000 0000000   0.0000 300.0000  3.95927803    19
CTC1_L_00634008-08
1 10077U 26520IT  26075.70039352  .00000000  00000+0  00000-0 0  9998
2 10077  55.0000 210.0000 0000000   0.0000 336.0000  3.95927803    19
CTC1_L_00634008-09
1 10078U 22564FP  26075.70039352  .00000000  00000+0  00000-0 0  9993
2 10078  55.0000 210.0000 0000000   0.0000  12.0000  3.95927803    11
CTC1_L_00634008-10
1 10079U 25489KY  26075.70039352  .00000000  00000+0  00000-0 0  9993
2 10079  55.0000 210.0000 0000000   0.0000  48.0000  3.95927803    11
CTC1_L_00634009-01
1 10080U 26201HX  26075.70039352  .00000000  00000+0  00000-0 0  9998
2 10080  55.0000 240.0000 0000000   0.0000  96.0000  3.95927803    19
CTC1_L_00634009-02
1 10081U 25660RQ  26075.70039352  .00000000  00000+0  00000-0 0  9997
2 10081  55.0000 240.0000 0000000   0.0000 132.0000  3.95927803    11
CTC1_L_00634009-03
1 10082U 23211HR  26075.70039352  .00000000  00000+0  00000-0 0  9998
2 10082  55.0000 240.0000 0000000   0.0000 168.0000  3.95927803    11
CTC1_L_00634009-04
1 10083U 22045XE  26075.70039352  .00000000  00000+0  00000-0 0  9993
2 10083  55.0000 240.0000 0000000   0.0000 204.0000  3.95927803    13
CTC1_L_00634009-05
1 10084U 25431ZQ  26075.70039352  .00000000  00000+0  00000-0 0  9996
2 10084  55.0000 240.0000 0000000   0.0000 240.0000  3.95927803    14
CTC1_L_00634009-06
1 10085U 24782AP  26075.70039352  .00000000  00000+0  00000-0 0  9995
2 10085  55.0000 240.0000 0000000   0.0000 276.0000  3.95927803    14
CTC1_L_00634009-07
1 10086U 25881ZG  26075.70039352  .00000000  00000+0  00000-0 0  9997
2 10086  55.0000 240.0000 0000000   0.0000 312.0000  3.95927803    16
CTC1_L_00634009-08
1 10087U 22814W   26075.70039352  .00000000  00000+0  00000-0 0  9991
2 10087  55.0000 240.0000 0000000   0.0000 348.0000  3.95927803    16
CTC1_L_00634009-09
1 10088U 23860XS  26075.70039352  .00000000  00000+0  00000-0 0  9994
2 10088  55.0000 240.0000 0000000   0.0000  24.0000  3.95927803    18
CTC1_L_00634009-10
1 10089U 23988NF  26075.70039352  .00000000  00000+0  00000-0 0  9996
2 10089  55.0000 240.0000 0000000   0.0000  60.0000  3.95927803    19
CTC1_L_00634010-01
1 10090U 22821AQ  26075.70039352  .00000000  00000+0  00000-0 0  9993
2 10090  55.0000 270.0000 0000000   0.0000 108.0000  3.95927803    17
CTC1_L_00634010-02
1 10091U 26986FV  26075.70039352  .00000000  00000+0  00000-0 0  9990
2 10091  55.0000 270.0000 0000000   0.0000 144.0000  3.95927803    18
CTC1_L_00634010-03
1 10092U 24473UZ  26075.70039352  .00000000  00000+0  00000-0 0  9990
2 10092  55.0000 270.0000 0000000   0.0000 180.0000  3.95927803    19
CTC1_L_00634010-04
1 10093U 23756ZO  26075.70039352  .00000000  00000+0  00000-0 0  9994
2 10093  55.0000 270.0000 0000000   0.0000 216.0000  3.95927803    10
CTC1_L_00634010-05
1 10094U 25507PY  26075.70039352  .00000000  00000+0  00000-0 0  9991
2 10094  55.0000 270.0000 0000000   0.0000 252.0000  3.95927803    11
CTC1_L_00634010-06
1 10095U 25913AD  26075.70039352  .00000000  00000+0  00000-0 0  9993
2 10095  55.0000 270.0000 0000000   0.0000 288.0000  3.95927803    11
CTC1_L_00634010-07
1 10096U 26328UD  26075.70039352  .00000000  00000+0  00000-0 0  9995
2 10096  55.0000 270.0000 0000000   0.0000 324.0000  3.95927803    13
CTC1_L_00634010-08
1 10097U 25240Z   26075.70039352  .00000000  00000+0  00000-0 0  9998
2 10097  55.0000 270.0000 0000000   0.0000   0.0000  3.95927803    15
CTC1_L_00634010-09
1 10098U 22893FP  26075.70039352  .00000000  00000+0  00000-0 0  9990
2 10098  55.0000 270.0000 0000000   0.0000  36.0000  3.95927803    15
CTC1_L_00634010-10
1 10099U 25957JK  26075.70039352  .00000000  00000+0  00000-0 0  9995
2 10099  55.0000 270.0000 0000000   0.0000  72.0000  3.95927803    16
CTC1_L_00634011-01
1 10100U 22956JB  26075.70039352  .00000000  00000+0  00000-0 0  9994
2 10100  55.0000 300.0000 0000000   0.0000 120.0000  3.95927803    17
CTC1_L_00634011-02
1 10101U 23887TU  26075.70039352  .00000000  00000+0  00000-0 0  9999
2 10101  55.0000 300.0000 0000000   0.0000 156.0000  3.95927803    17
CTC1_L_00634011-03
1 10102U 25916NP  26075.70039352  .00000000  00000+0  00000-0 0  9995
2 10102  55.0000 300.0000 0000000   0.0000 192.0000  3.95927803    18
CTC1_L_00634011-04
1 10103U 25005JB  26075.70039352  .00000000  00000+0  00000-0 0  9995
2 10103  55.0000 300.0000 0000000   0.0000 228.0000  3.95927803    19
CTC1_L_00634011-05
1 10104U 24606BO  26075.70039352  .00000000  00000+0  00000-0 0  9992
2 10104  55.0000 300.0000 0000000   0.0000 264.0000  3.95927803    10
CTC1_L_00634011-06
1 10105U 25245JY  26075.70039352  .00000000  00000+0  00000-0 0  9993
2 10105  55.0000 300.0000 0000000   0.0000 300.0000  3.95927803    12
CTC1_L_00634011-07
1 10106U 23571GD  26075.70039352  .00000000  00000+0  00000-0 0  9994
2 10106  55.0000 300.0000 0000000   0.0000 336.0000  3.95927803    12
CTC1_L_00634011-08
1 10107U 23089HK  26075.70039352  .00000000  00000+0  00000-0 0  9999
2 10107  55.0000 300.0000 0000000   0.0000  12.0000  3.95927803    14
CTC1_L_00634011-09
1 10108U 24782VF  26075.70039352  .00000000  00000+0  00000-0 0  9991
2 10108  55.0000 300.0000 0000000   0.0000  48.0000  3.95927803    14
CTC1_L_00634011-10
1 10109U 25295AO  26075.70039352  .00000000  00000+0  00000-0 0  9992
2 10109  55.0000 300.0000 0000000   0.0000  84.0000  3.95927803    15
CTC1_L_00634012-01
1 10110U 26439K   26075.70039352  .00000000  00000+0  00000-0 0  9995
2 10110  55.0000 330.0000 0000000   0.0000 132.0000  3.95927803    14
CTC1_L_00634012-02
1 10111U 26147OL  26075.70039352  .00000000  00000+0  00000-0 0  9992
2 10111  55.0000 330.0000 0000000   0.0000 168.0000  3.95927803    14
CTC1_L_00634012-03
1 10112U 26275RE  26075.70039352  .00000000  00000+0  00000-0 0  9995
2 10112  55.0000 330.0000 0000000   0.0000 204.0000  3.95927803    16
CTC1_L_00634012-04
1 10113U 23407CG  26075.70039352  .00000000  00000+0  00000-0 0  9990
2 10113  55.0000 330.0000 0000000   0.0000 240.0000  3.95927803    17
CTC1_L_00634012-05
1 10114U 22617WH  26075.70039352  .00000000  00000+0  00000-0 0  9993
2 10114  55.0000 330.0000 0000000   0.0000 276.0000  3.95927803    17
CTC1_L_00634012-06
1 10115U 23297ED  26075.70039352  .00000000  00000+0  00000-0 0  9999
2 10115  55.0000 330.0000 0000000   0.0000 312.0000  3.95927803    19
CTC1_L_00634012-07
1 10116U 25423VG  26075.70039352  .00000000  00000+0  00000-0 0  9993
2 10116  55.0000 330.0000 0000000   0.0000 348.0000  3.95927803    19
CTC1_L_00634012-08
1 10117U 25241MG  26075.70039352  .00000000  00000+0  00000-0 0  9992
2 10117  55.0000 330.0000 0000000   0.0000  24.0000  3.95927803    11
CTC1_L_00634012-09
1 10118U 22270NC  26075.70039352  .00000000  00000+0  00000-0 0  9992
2 10118  55.0000 330.0000 0000000   0.0000  60.0000  3.95927803    12
CTC1_L_00634012-10
1 10119U 26425FZ  26075.70039352  .00000000  00000+0  00000-0 0  9999
2 10119  55.0000 330.0000 0000000   0.0000  96.0000  3.95927803    12
